{
  "type": "FeatureCollection",
  "features": [
    {
      "type": "Feature",
      "properties": {
        "norad_id": 63632,
        "name": "SHENZHOU-20 (SZ-20)",
        "group": "stations",
        "lat": 11.756172786991188,
        "lon": 72.07028195193864,
        "alt_km": 384.1630171842535,
        "timestamp": "2025-12-05T20:43:00.875837+00:00",
        "meta_object_name": "SHENZHOU-20 (SZ-20)",
        "meta_object_id": "2025-082A",
        "meta_epoch": "2025-12-05T06:48:03.993120",
        "meta_mean_motion": 15.5871605,
        "meta_eccentricity": 0.00098342,
        "meta_inclination": 41.4682,
        "meta_ra_of_asc_node": 61.9587,
        "meta_arg_of_pericenter": 333.0075,
        "meta_mean_anomaly": 27.0251,
        "meta_ephemeris_type": 0,
        "meta_classification_type": "U",
        "meta_norad_cat_id": 63632,
        "meta_element_set_no": 999,
        "meta_rev_at_epoch": 25530,
        "meta_bstar": 0.00043162186,
        "meta_mean_motion_dot": 0.00034071,
        "meta_mean_motion_ddot": 0,
        "tle_line1": "1 63632U 25082A   25339.28337955  .00034071  00000+0  43162-3 0  9994",
        "tle_line2": "2 63632  41.4682  61.9587 0009834 333.0075  27.0251 15.58716050255308"
      },
      "geometry": {
        "type": "Point",
        "coordinates": [
          72.07028195193864,
          11.756172786991188
        ]
      }
    },
    {
      "type": "Feature",
      "properties": {
        "norad_id": 64751,
        "name": "PROGRESS-MS 31",
        "group": "stations",
        "lat": 10.671945570806608,
        "lon": -12.062914880914487,
        "alt_km": 416.07874400438504,
        "timestamp": "2025-12-05T20:43:00.875848+00:00",
        "meta_object_name": "PROGRESS-MS 31",
        "meta_object_id": "2025-146A",
        "meta_epoch": "2025-12-05T06:04:12.236160",
        "meta_mean_motion": 15.49328184,
        "meta_eccentricity": 0.00035858,
        "meta_inclination": 51.6297,
        "meta_ra_of_asc_node": 179.5463,
        "meta_arg_of_pericenter": 206.2517,
        "meta_mean_anomaly": 153.8291,
        "meta_ephemeris_type": 0,
        "meta_classification_type": "U",
        "meta_norad_cat_id": 64751,
        "meta_element_set_no": 999,
        "meta_rev_at_epoch": 675,
        "meta_bstar": 0.0002719745,
        "meta_mean_motion_dot": 0.00014736,
        "meta_mean_motion_ddot": 0,
        "tle_line1": "1 64751U 25146A   25339.25291940  .00014736  00000+0  27197-3 0  9994",
        "tle_line2": "2 64751  51.6297 179.5463 0003585 206.2517 153.8291 15.49328184  6756"
      },
      "geometry": {
        "type": "Point",
        "coordinates": [
          -12.062914880914487,
          10.671945570806608
        ]
      }
    },
    {
      "type": "Feature",
      "properties": {
        "norad_id": 64786,
        "name": "TIANZHOU-9",
        "group": "stations",
        "lat": 11.756173709228086,
        "lon": 72.07028307151775,
        "alt_km": 384.16301715384725,
        "timestamp": "2025-12-05T20:43:00.875859+00:00",
        "meta_object_name": "TIANZHOU-9",
        "meta_object_id": "2025-149A",
        "meta_epoch": "2025-12-05T06:48:03.993120",
        "meta_mean_motion": 15.5871605,
        "meta_eccentricity": 0.00098342,
        "meta_inclination": 41.4682,
        "meta_ra_of_asc_node": 61.9587,
        "meta_arg_of_pericenter": 333.0075,
        "meta_mean_anomaly": 27.0251,
        "meta_ephemeris_type": 0,
        "meta_classification_type": "U",
        "meta_norad_cat_id": 64786,
        "meta_element_set_no": 999,
        "meta_rev_at_epoch": 25530,
        "meta_bstar": 0.00043162186,
        "meta_mean_motion_dot": 0.00034071,
        "meta_mean_motion_ddot": 0,
        "tle_line1": "1 64786U 25149A   25339.28337955  .00034071  00000+0  43162-3 0  9999",
        "tle_line2": "2 64786  41.4682  61.9587 0009834 333.0075  27.0251 15.58716050255309"
      },
      "geometry": {
        "type": "Point",
        "coordinates": [
          72.07028307151775,
          11.756173709228086
        ]
      }
    },
    {
      "type": "Feature",
      "properties": {
        "norad_id": 65077,
        "name": "CREW DRAGON 11",
        "group": "stations",
        "lat": 10.671944518318485,
        "lon": -12.062914008816364,
        "alt_km": 416.0787441221837,
        "timestamp": "2025-12-05T20:43:00.875869+00:00",
        "meta_object_name": "CREW DRAGON 11",
        "meta_object_id": "2025-166A",
        "meta_epoch": "2025-12-05T06:04:12.236160",
        "meta_mean_motion": 15.49328184,
        "meta_eccentricity": 0.00035858,
        "meta_inclination": 51.6297,
        "meta_ra_of_asc_node": 179.5463,
        "meta_arg_of_pericenter": 206.2517,
        "meta_mean_anomaly": 153.8291,
        "meta_ephemeris_type": 0,
        "meta_classification_type": "U",
        "meta_norad_cat_id": 65077,
        "meta_element_set_no": 999,
        "meta_rev_at_epoch": 214,
        "meta_bstar": 0.0002719745,
        "meta_mean_motion_dot": 0.00014736,
        "meta_mean_motion_ddot": 0,
        "tle_line1": "1 65077U 25166A   25339.25291940  .00014736  00000+0  27197-3 0  9998",
        "tle_line2": "2 65077  51.6297 179.5463 0003585 206.2517 153.8291 15.49328184  2147"
      },
      "geometry": {
        "type": "Point",
        "coordinates": [
          -12.062914008816364,
          10.671944518318485
        ]
      }
    },
    {
      "type": "Feature",
      "properties": {
        "norad_id": 65304,
        "name": "DRAGON CRS-33",
        "group": "stations",
        "lat": 10.67194401713407,
        "lon": -12.062913593531896,
        "alt_km": 416.0787441782795,
        "timestamp": "2025-12-05T20:43:00.875879+00:00",
        "meta_object_name": "DRAGON CRS-33",
        "meta_object_id": "2025-186A",
        "meta_epoch": "2025-12-05T06:04:12.236160",
        "meta_mean_motion": 15.49328184,
        "meta_eccentricity": 0.00035858,
        "meta_inclination": 51.6297,
        "meta_ra_of_asc_node": 179.5463,
        "meta_arg_of_pericenter": 206.2517,
        "meta_mean_anomaly": 153.8291,
        "meta_ephemeris_type": 0,
        "meta_classification_type": "U",
        "meta_norad_cat_id": 65304,
        "meta_element_set_no": 999,
        "meta_rev_at_epoch": 11,
        "meta_bstar": 0.0002719745,
        "meta_mean_motion_dot": 0.00014736,
        "meta_mean_motion_ddot": 0,
        "tle_line1": "1 65304U 25186A   25339.25291940  .00014736  00000+0  27197-3 0  9993",
        "tle_line2": "2 65304  51.6297 179.5463 0003585 206.2517 153.8291 15.49328184   115"
      },
      "geometry": {
        "type": "Point",
        "coordinates": [
          -12.062913593531896,
          10.67194401713407
        ]
      }
    },
    {
      "type": "Feature",
      "properties": {
        "norad_id": 65586,
        "name": "PROGRESS-MS 32",
        "group": "stations",
        "lat": 10.671943515948387,
        "lon": -12.062913178246381,
        "alt_km": 416.0787442343726,
        "timestamp": "2025-12-05T20:43:00.875889+00:00",
        "meta_object_name": "PROGRESS-MS 32",
        "meta_object_id": "2025-204A",
        "meta_epoch": "2025-12-05T06:04:12.236160",
        "meta_mean_motion": 15.49328184,
        "meta_eccentricity": 0.00035858,
        "meta_inclination": 51.6297,
        "meta_ra_of_asc_node": 179.5463,
        "meta_arg_of_pericenter": 206.2517,
        "meta_mean_anomaly": 153.8291,
        "meta_ephemeris_type": 0,
        "meta_classification_type": "U",
        "meta_norad_cat_id": 65586,
        "meta_element_set_no": 999,
        "meta_rev_at_epoch": 27,
        "meta_bstar": 0.0002719745,
        "meta_mean_motion_dot": 0.00014736,
        "meta_mean_motion_ddot": 0,
        "tle_line1": "1 65586U 25204A   25339.25291940  .00014736  00000+0  27197-3 0  9996",
        "tle_line2": "2 65586  51.6297 179.5463 0003585 206.2517 153.8291 15.49328184   274"
      },
      "geometry": {
        "type": "Point",
        "coordinates": [
          -12.062913178246381,
          10.671943515948387
        ]
      }
    },
    {
      "type": "Feature",
      "properties": {
        "norad_id": 65616,
        "name": "CYGNUS NG-23",
        "group": "stations",
        "lat": 10.6719429646459,
        "lon": -12.062912721433776,
        "alt_km": 416.07874429607546,
        "timestamp": "2025-12-05T20:43:00.875900+00:00",
        "meta_object_name": "CYGNUS NG-23",
        "meta_object_id": "2025-208A",
        "meta_epoch": "2025-12-05T06:04:12.236160",
        "meta_mean_motion": 15.49328184,
        "meta_eccentricity": 0.00035858,
        "meta_inclination": 51.6297,
        "meta_ra_of_asc_node": 179.5463,
        "meta_arg_of_pericenter": 206.2517,
        "meta_mean_anomaly": 153.8291,
        "meta_ephemeris_type": 0,
        "meta_classification_type": "U",
        "meta_norad_cat_id": 65616,
        "meta_element_set_no": 999,
        "meta_rev_at_epoch": 22,
        "meta_bstar": 0.0002719745,
        "meta_mean_motion_dot": 0.00014736,
        "meta_mean_motion_ddot": 0,
        "tle_line1": "1 65616U 25208A   25339.25291940  .00014736  00000+0  27197-3 0  9994",
        "tle_line2": "2 65616  51.6297 179.5463 0003585 206.2517 153.8291 15.49328184   223"
      },
      "geometry": {
        "type": "Point",
        "coordinates": [
          -12.062912721433776,
          10.6719429646459
        ]
      }
    }
  ]
}